CCSDS_OMM_VERS = 2.0
CREATION_DATE  = 
ORIGINATOR     = 

OBJECT_NAME    = E-KAGAKU-1
OBJECT_ID      = 1998-067XQ
CENTER_NAME    = EARTH
REF_FRAME      = TEME
TIME_SYSTEM    = UTC
MEAN_ELEMENT_THEORY = SGP/SGP4

EPOCH          = 2026-03-11T08:29:46.752576
MEAN_MOTION    = 15.80954651
ECCENTRICITY   = .0005829
INCLINATION    = 51.6236
RA_OF_ASC_NODE = 48.7312
ARG_OF_PERICENTER = 85.6037
MEAN_ANOMALY   = 274.5631

EPHEMERIS_TYPE = 0
CLASSIFICATION_TYPE = U
NORAD_CAT_ID   = 65943
ELEMENT_SET_NO = 999
REV_AT_EPOCH   = 2376
BSTAR          = .11982E-2
MEAN_MOTION_DOT = .244131E-2
MEAN_MOTION_DDOT = 0

CCSDS_OMM_VERS = 2.0
CREATION_DATE  = 
ORIGINATOR     = 

OBJECT_NAME    = HRC MONOBLOCK CAMERA
OBJECT_ID      = 1998-067XR
CENTER_NAME    = EARTH
REF_FRAME      = TEME
TIME_SYSTEM    = UTC
MEAN_ELEMENT_THEORY = SGP/SGP4

EPOCH          = 2026-03-11T08:43:22.617408
MEAN_MOTION    = 15.62407862
ECCENTRICITY   = .0003725
INCLINATION    = 51.6285
RA_OF_ASC_NODE = 57.0842
ARG_OF_PERICENTER = 100.4514
MEAN_ANOMALY   = 259.6900

EPHEMERIS_TYPE = 0
CLASSIFICATION_TYPE = U
NORAD_CAT_ID   = 66052
ELEMENT_SET_NO = 999
REV_AT_EPOCH   = 2265
BSTAR          = .66086E-3
MEAN_MOTION_DOT = .59702E-3
MEAN_MOTION_DDOT = 0

CCSDS_OMM_VERS = 2.0
CREATION_DATE  = 
ORIGINATOR     = 

OBJECT_NAME    = HTV-X1
OBJECT_ID      = 2025-241A
CENTER_NAME    = EARTH
REF_FRAME      = TEME
TIME_SYSTEM    = UTC
MEAN_ELEMENT_THEORY = SGP/SGP4

EPOCH          = 2026-03-11T12:32:19.454496
MEAN_MOTION    = 15.22846229
ECCENTRICITY   = .000561
INCLINATION    = 51.6346
RA_OF_ASC_NODE = 64.1274
ARG_OF_PERICENTER = 176.2758
MEAN_ANOMALY   = 183.8262

EPHEMERIS_TYPE = 0
CLASSIFICATION_TYPE = U
NORAD_CAT_ID   = 66174
ELEMENT_SET_NO = 999
REV_AT_EPOCH   = 2123
BSTAR          = .57425E-3
MEAN_MOTION_DOT = .13323E-3
MEAN_MOTION_DDOT = 0

CCSDS_OMM_VERS = 2.0
CREATION_DATE  = 
ORIGINATOR     = 

OBJECT_NAME    = SZ-21 MODULE
OBJECT_ID      = 2025-246C
CENTER_NAME    = EARTH
REF_FRAME      = TEME
TIME_SYSTEM    = UTC
MEAN_ELEMENT_THEORY = SGP/SGP4

EPOCH          = 2026-03-11T09:51:03.159072
MEAN_MOTION    = 15.68699733
ECCENTRICITY   = .000124
INCLINATION    = 41.4735
RA_OF_ASC_NODE = 192.7670
ARG_OF_PERICENTER = 303.7163
MEAN_ANOMALY   = 56.3560

EPHEMERIS_TYPE = 0
CLASSIFICATION_TYPE = U
NORAD_CAT_ID   = 66515
ELEMENT_SET_NO = 999
REV_AT_EPOCH   = 1834
BSTAR          = .36895E-3
MEAN_MOTION_DOT = .43213E-3
MEAN_MOTION_DDOT = 0

CCSDS_OMM_VERS = 2.0
CREATION_DATE  = 
ORIGINATOR     = 

OBJECT_NAME    = SHENZHOU-22
OBJECT_ID      = 2025-272A
CENTER_NAME    = EARTH
REF_FRAME      = TEME
TIME_SYSTEM    = UTC
MEAN_ELEMENT_THEORY = SGP/SGP4

EPOCH          = 2026-03-11T18:19:03.950688
MEAN_MOTION    = 15.60782980
ECCENTRICITY   = .00068
INCLINATION    = 41.4661
RA_OF_ASC_NODE = 195.5440
ARG_OF_PERICENTER = 284.6024
MEAN_ANOMALY   = 75.4061

EPHEMERIS_TYPE = 0
CLASSIFICATION_TYPE = U
NORAD_CAT_ID   = 66645
ELEMENT_SET_NO = 999
REV_AT_EPOCH   = 26965
BSTAR          = .34031E-3
MEAN_MOTION_DOT = .28963E-3
MEAN_MOTION_DDOT = 0

CCSDS_OMM_VERS = 2.0
CREATION_DATE  = 
ORIGINATOR     = 

OBJECT_NAME    = SOYUZ-MS 28
OBJECT_ID      = 2025-275A
CENTER_NAME    = EARTH
REF_FRAME      = TEME
TIME_SYSTEM    = UTC
MEAN_ELEMENT_THEORY = SGP/SGP4

EPOCH          = 2026-03-11T10:47:00.996576
MEAN_MOTION    = 15.48580657
ECCENTRICITY   = .0007999
INCLINATION    = 51.6324
RA_OF_ASC_NODE = 63.6561
ARG_OF_PERICENTER = 180.7735
MEAN_ANOMALY   = 179.3242

EPHEMERIS_TYPE = 0
CLASSIFICATION_TYPE = U
NORAD_CAT_ID   = 66664
ELEMENT_SET_NO = 999
REV_AT_EPOCH   = 55662
BSTAR          = .17741E-3
MEAN_MOTION_DOT = .9201E-4
MEAN_MOTION_DDOT = 0

CCSDS_OMM_VERS = 2.0
CREATION_DATE  = 
ORIGINATOR     = 

OBJECT_NAME    = DUPLEX
OBJECT_ID      = 1998-067XS
CENTER_NAME    = EARTH
REF_FRAME      = TEME
TIME_SYSTEM    = UTC
MEAN_ELEMENT_THEORY = SGP/SGP4

EPOCH          = 2026-03-11T12:18:03.841344
MEAN_MOTION    = 15.56362419
ECCENTRICITY   = .0002563
INCLINATION    = 51.6291
RA_OF_ASC_NODE = 60.3322
ARG_OF_PERICENTER = 120.8147
MEAN_ANOMALY   = 239.3097

EPHEMERIS_TYPE = 0
CLASSIFICATION_TYPE = U
NORAD_CAT_ID   = 66906
ELEMENT_SET_NO = 999
REV_AT_EPOCH   = 1541
BSTAR          = .57411E-3
MEAN_MOTION_DOT = .40984E-3
MEAN_MOTION_DDOT = 0

CCSDS_OMM_VERS = 2.0
CREATION_DATE  = 
ORIGINATOR     = 

OBJECT_NAME    = ISS OBJECT XT
OBJECT_ID      = 1998-067XT
CENTER_NAME    = EARTH
REF_FRAME      = TEME
TIME_SYSTEM    = UTC
MEAN_ELEMENT_THEORY = SGP/SGP4

EPOCH          = 2026-03-11T08:46:29.301888
MEAN_MOTION    = 15.69844400
ECCENTRICITY   = .0004717
INCLINATION    = 51.6250
RA_OF_ASC_NODE = 57.0845
ARG_OF_PERICENTER = 88.7604
MEAN_ANOMALY   = 271.3934

EPHEMERIS_TYPE = 0
CLASSIFICATION_TYPE = U
NORAD_CAT_ID   = 66907
ELEMENT_SET_NO = 999
REV_AT_EPOCH   = 1544
BSTAR          = .14595E-2
MEAN_MOTION_DOT = .181509E-2
MEAN_MOTION_DDOT = 0

CCSDS_OMM_VERS = 2.0
CREATION_DATE  = 
ORIGINATOR     = 

OBJECT_NAME    = ISS OBJECT XU
OBJECT_ID      = 1998-067XU
CENTER_NAME    = EARTH
REF_FRAME      = TEME
TIME_SYSTEM    = UTC
MEAN_ELEMENT_THEORY = SGP/SGP4

EPOCH          = 2026-03-11T13:18:40.471776
MEAN_MOTION    = 15.70040641
ECCENTRICITY   = .0004913
INCLINATION    = 51.6249
RA_OF_ASC_NODE = 56.0925
ARG_OF_PERICENTER = 92.2997
MEAN_ANOMALY   = 267.8563

EPHEMERIS_TYPE = 0
CLASSIFICATION_TYPE = U
NORAD_CAT_ID   = 66908
ELEMENT_SET_NO = 999
REV_AT_EPOCH   = 1547
BSTAR          = .13885E-2
MEAN_MOTION_DOT = .173925E-2
MEAN_MOTION_DDOT = 0

CCSDS_OMM_VERS = 2.0
CREATION_DATE  = 
ORIGINATOR     = 

OBJECT_NAME    = SILVERSAT
OBJECT_ID      = 1998-067XV
CENTER_NAME    = EARTH
REF_FRAME      = TEME
TIME_SYSTEM    = UTC
MEAN_ELEMENT_THEORY = SGP/SGP4

EPOCH          = 2026-03-11T05:37:58.520640
MEAN_MOTION    = 15.72937624
ECCENTRICITY   = .0005466
INCLINATION    = 51.6250
RA_OF_ASC_NODE = 56.9557
ARG_OF_PERICENTER = 87.1357
MEAN_ANOMALY   = 273.0267

EPHEMERIS_TYPE = 0
CLASSIFICATION_TYPE = U
NORAD_CAT_ID   = 66909
ELEMENT_SET_NO = 999
REV_AT_EPOCH   = 1543
BSTAR          = .16574E-2
MEAN_MOTION_DOT = .236525E-2
MEAN_MOTION_DDOT = 0

CCSDS_OMM_VERS = 2.0
CREATION_DATE  = 
ORIGINATOR     = 

OBJECT_NAME    = ISS OBJECT XW
OBJECT_ID      = 1998-067XW
CENTER_NAME    = EARTH
REF_FRAME      = TEME
TIME_SYSTEM    = UTC
MEAN_ELEMENT_THEORY = SGP/SGP4

EPOCH          = 2026-03-11T05:36:44.037792
MEAN_MOTION    = 15.69081269
ECCENTRICITY   = .0005316
INCLINATION    = 51.6252
RA_OF_ASC_NODE = 57.6975
ARG_OF_PERICENTER = 95.4804
MEAN_ANOMALY   = 264.6799

EPHEMERIS_TYPE = 0
CLASSIFICATION_TYPE = U
NORAD_CAT_ID   = 66910
ELEMENT_SET_NO = 999
REV_AT_EPOCH   = 1542
BSTAR          = .13203E-2
MEAN_MOTION_DOT = .158614E-2
MEAN_MOTION_DDOT = 0

CCSDS_OMM_VERS = 2.0
CREATION_DATE  = 
ORIGINATOR     = 

OBJECT_NAME    = ISS OBJECT XX
OBJECT_ID      = 1998-067XX
CENTER_NAME    = EARTH
REF_FRAME      = TEME
TIME_SYSTEM    = UTC
MEAN_ELEMENT_THEORY = SGP/SGP4

EPOCH          = 2026-03-11T03:57:51.222816
MEAN_MOTION    = 15.76233813
ECCENTRICITY   = .00070692
INCLINATION    = 51.6235
RA_OF_ASC_NODE = 56.4689
ARG_OF_PERICENTER = 92.6185
MEAN_ANOMALY   = 267.5624

EPHEMERIS_TYPE = 0
CLASSIFICATION_TYPE = U
NORAD_CAT_ID   = 66911
ELEMENT_SET_NO = 999
REV_AT_EPOCH   = 1542
BSTAR          = .18152438E-2
MEAN_MOTION_DOT = .301388E-2
MEAN_MOTION_DDOT = 0

